CCSDS_OMM_VERS = 2.0
CREATION_DATE  = 
ORIGINATOR     = 

OBJECT_NAME    = IRIDE FM5
OBJECT_ID      = 2025-276AK
CENTER_NAME    = EARTH
REF_FRAME      = TEME
TIME_SYSTEM    = UTC
MEAN_ELEMENT_THEORY = SGP/SGP4

EPOCH          = 2025-12-21T12:16:04.408032
MEAN_MOTION    = 15.17328524
ECCENTRICITY   = .0004801
INCLINATION    = 97.4440
RA_OF_ASC_NODE = 67.1171
ARG_OF_PERICENTER = 242.2933
MEAN_ANOMALY   = 117.7814

EPHEMERIS_TYPE = 0
CLASSIFICATION_TYPE = U
NORAD_CAT_ID   = 66699
ELEMENT_SET_NO = 999
REV_AT_EPOCH   = 345
BSTAR          = .28485E-3
MEAN_MOTION_DOT = .5616E-4
MEAN_MOTION_DDOT = 0

CCSDS_OMM_VERS = 2.0
CREATION_DATE  = 
ORIGINATOR     = 

OBJECT_NAME    = IRIDE FM6
OBJECT_ID      = 2025-276AL
CENTER_NAME    = EARTH
REF_FRAME      = TEME
TIME_SYSTEM    = UTC
MEAN_ELEMENT_THEORY = SGP/SGP4

EPOCH          = 2025-12-21T10:23:19.273344
MEAN_MOTION    = 15.18188010
ECCENTRICITY   = .0001529
INCLINATION    = 97.4428
RA_OF_ASC_NODE = 67.0733
ARG_OF_PERICENTER = 167.0520
MEAN_ANOMALY   = 193.0754

EPHEMERIS_TYPE = 0
CLASSIFICATION_TYPE = U
NORAD_CAT_ID   = 66700
ELEMENT_SET_NO = 999
REV_AT_EPOCH   = 344
BSTAR          = .41792E-3
MEAN_MOTION_DOT = .848E-4
MEAN_MOTION_DDOT = 0

CCSDS_OMM_VERS = 2.0
CREATION_DATE  = 
ORIGINATOR     = 

OBJECT_NAME    = IRIDE FM7
OBJECT_ID      = 2025-276AM
CENTER_NAME    = EARTH
REF_FRAME      = TEME
TIME_SYSTEM    = UTC
MEAN_ELEMENT_THEORY = SGP/SGP4

EPOCH          = 2025-12-21T12:16:08.273568
MEAN_MOTION    = 15.17123308
ECCENTRICITY   = .0002041
INCLINATION    = 97.4408
RA_OF_ASC_NODE = 67.1217
ARG_OF_PERICENTER = 246.0122
MEAN_ANOMALY   = 114.0898

EPHEMERIS_TYPE = 0
CLASSIFICATION_TYPE = U
NORAD_CAT_ID   = 66701
ELEMENT_SET_NO = 999
REV_AT_EPOCH   = 345
BSTAR          = -.71121E-2
MEAN_MOTION_DOT = -.138346E-2
MEAN_MOTION_DDOT = 0

CCSDS_OMM_VERS = 2.0
CREATION_DATE  = 
ORIGINATOR     = 

OBJECT_NAME    = IRIDE FM8
OBJECT_ID      = 2025-276AN
CENTER_NAME    = EARTH
REF_FRAME      = TEME
TIME_SYSTEM    = UTC
MEAN_ELEMENT_THEORY = SGP/SGP4

EPOCH          = 2025-12-21T10:40:52.580064
MEAN_MOTION    = 15.17360953
ECCENTRICITY   = .0002819
INCLINATION    = 97.4406
RA_OF_ASC_NODE = 67.0500
ARG_OF_PERICENTER = 271.4009
MEAN_ANOMALY   = 88.6901

EPHEMERIS_TYPE = 0
CLASSIFICATION_TYPE = U
NORAD_CAT_ID   = 66702
ELEMENT_SET_NO = 999
REV_AT_EPOCH   = 344
BSTAR          = .39072E-3
MEAN_MOTION_DOT = .7737E-4
MEAN_MOTION_DDOT = 0

CCSDS_OMM_VERS = 2.0
CREATION_DATE  = 
ORIGINATOR     = 

OBJECT_NAME    = PELICAN-6
OBJECT_ID      = 2025-276AP
CENTER_NAME    = EARTH
REF_FRAME      = TEME
TIME_SYSTEM    = UTC
MEAN_ELEMENT_THEORY = SGP/SGP4

EPOCH          = 2025-12-21T10:38:57.662016
MEAN_MOTION    = 15.17324585
ECCENTRICITY   = .0000908
INCLINATION    = 97.4415
RA_OF_ASC_NODE = 67.0536
ARG_OF_PERICENTER = 254.1430
MEAN_ANOMALY   = 105.9704

EPHEMERIS_TYPE = 0
CLASSIFICATION_TYPE = U
NORAD_CAT_ID   = 66703
ELEMENT_SET_NO = 999
REV_AT_EPOCH   = 344
BSTAR          = .32979E-3
MEAN_MOTION_DOT = .6512E-4
MEAN_MOTION_DDOT = 0

CCSDS_OMM_VERS = 2.0
CREATION_DATE  = 
ORIGINATOR     = 

OBJECT_NAME    = FLOCK 4H-1
OBJECT_ID      = 2025-276AQ
CENTER_NAME    = EARTH
REF_FRAME      = TEME
TIME_SYSTEM    = UTC
MEAN_ELEMENT_THEORY = SGP/SGP4

EPOCH          = 2025-12-21T10:25:13.651392
MEAN_MOTION    = 15.18059569
ECCENTRICITY   = .0001776
INCLINATION    = 97.4390
RA_OF_ASC_NODE = 67.0574
ARG_OF_PERICENTER = 175.4041
MEAN_ANOMALY   = 184.7210

EPHEMERIS_TYPE = 0
CLASSIFICATION_TYPE = U
NORAD_CAT_ID   = 66704
ELEMENT_SET_NO = 999
REV_AT_EPOCH   = 344
BSTAR          = .3708E-3
MEAN_MOTION_DOT = .7487E-4
MEAN_MOTION_DDOT = 0

CCSDS_OMM_VERS = 2.0
CREATION_DATE  = 
ORIGINATOR     = 

OBJECT_NAME    = FLOCK 4H-2
OBJECT_ID      = 2025-276AR
CENTER_NAME    = EARTH
REF_FRAME      = TEME
TIME_SYSTEM    = UTC
MEAN_ELEMENT_THEORY = SGP/SGP4

EPOCH          = 2025-12-21T10:24:37.665792
MEAN_MOTION    = 15.18111901
ECCENTRICITY   = .0001124
INCLINATION    = 97.4384
RA_OF_ASC_NODE = 67.0582
ARG_OF_PERICENTER = 163.8014
MEAN_ANOMALY   = 196.3256

EPHEMERIS_TYPE = 0
CLASSIFICATION_TYPE = U
NORAD_CAT_ID   = 66705
ELEMENT_SET_NO = 999
REV_AT_EPOCH   = 344
BSTAR          = .42493E-3
MEAN_MOTION_DOT = .8604E-4
MEAN_MOTION_DDOT = 0

CCSDS_OMM_VERS = 2.0
CREATION_DATE  = 
ORIGINATOR     = 

OBJECT_NAME    = FLOCK 4H-3
OBJECT_ID      = 2025-276AS
CENTER_NAME    = EARTH
REF_FRAME      = TEME
TIME_SYSTEM    = UTC
MEAN_ELEMENT_THEORY = SGP/SGP4

EPOCH          = 2025-12-21T09:02:08.719584
MEAN_MOTION    = 15.19631128
ECCENTRICITY   = .001085
INCLINATION    = 97.4467
RA_OF_ASC_NODE = 67.0015
ARG_OF_PERICENTER = 263.3993
MEAN_ANOMALY   = 96.6007

EPHEMERIS_TYPE = 0
CLASSIFICATION_TYPE = U
NORAD_CAT_ID   = 66706
ELEMENT_SET_NO = 999
REV_AT_EPOCH   = 343
BSTAR          = .47949E-1
MEAN_MOTION_DOT = .1105709E-1
MEAN_MOTION_DDOT = 0

CCSDS_OMM_VERS = 2.0
CREATION_DATE  = 
ORIGINATOR     = 

OBJECT_NAME    = FLOCK 4H-4
OBJECT_ID      = 2025-276AT
CENTER_NAME    = EARTH
REF_FRAME      = TEME
TIME_SYSTEM    = UTC
MEAN_ELEMENT_THEORY = SGP/SGP4

EPOCH          = 2025-12-21T12:18:22.237632
MEAN_MOTION    = 15.17188007
ECCENTRICITY   = .0003513
INCLINATION    = 97.4436
RA_OF_ASC_NODE = 67.1220
ARG_OF_PERICENTER = 258.3382
MEAN_ANOMALY   = 101.7457

EPHEMERIS_TYPE = 0
CLASSIFICATION_TYPE = U
NORAD_CAT_ID   = 66707
ELEMENT_SET_NO = 999
REV_AT_EPOCH   = 345
BSTAR          = .3012E-3
MEAN_MOTION_DOT = .5918E-4
MEAN_MOTION_DDOT = 0

CCSDS_OMM_VERS = 2.0
CREATION_DATE  = 
ORIGINATOR     = 

OBJECT_NAME    = FLOCK 4H-5
OBJECT_ID      = 2025-276AU
CENTER_NAME    = EARTH
REF_FRAME      = TEME
TIME_SYSTEM    = UTC
MEAN_ELEMENT_THEORY = SGP/SGP4

EPOCH          = 2025-12-21T07:13:07.584672
MEAN_MOTION    = 15.18142755
ECCENTRICITY   = .000112
INCLINATION    = 97.4390
RA_OF_ASC_NODE = 66.9337
ARG_OF_PERICENTER = 128.5114
MEAN_ANOMALY   = 231.6220

EPHEMERIS_TYPE = 0
CLASSIFICATION_TYPE = U
NORAD_CAT_ID   = 66708
ELEMENT_SET_NO = 999
REV_AT_EPOCH   = 342
BSTAR          = .3307E-3
MEAN_MOTION_DOT = .6686E-4
MEAN_MOTION_DDOT = 0

CCSDS_OMM_VERS = 2.0
CREATION_DATE  = 
ORIGINATOR     = 

OBJECT_NAME    = FLOCK 4H-6
OBJECT_ID      = 2025-276AV
CENTER_NAME    = EARTH
REF_FRAME      = TEME
TIME_SYSTEM    = UTC
MEAN_ELEMENT_THEORY = SGP/SGP4

EPOCH          = 2025-12-21T10:27:51.918912
MEAN_MOTION    = 15.17892092
ECCENTRICITY   = .0002605
INCLINATION    = 97.4440
RA_OF_ASC_NODE = 67.0759
ARG_OF_PERICENTER = 212.9123
MEAN_ANOMALY   = 147.1949

EPHEMERIS_TYPE = 0
CLASSIFICATION_TYPE = U
NORAD_CAT_ID   = 66709
ELEMENT_SET_NO = 999
REV_AT_EPOCH   = 344
BSTAR          = .38596E-3
MEAN_MOTION_DOT = .7759E-4
MEAN_MOTION_DDOT = 0

CCSDS_OMM_VERS = 2.0
CREATION_DATE  = 
ORIGINATOR     = 

OBJECT_NAME    = FLOCK 4H-7
OBJECT_ID      = 2025-276AW
CENTER_NAME    = EARTH
REF_FRAME      = TEME
TIME_SYSTEM    = UTC
MEAN_ELEMENT_THEORY = SGP/SGP4

EPOCH          = 2025-12-21T09:02:56.992992
MEAN_MOTION    = 15.17464124
ECCENTRICITY   = .0001094
INCLINATION    = 97.4395
RA_OF_ASC_NODE = 66.9821
ARG_OF_PERICENTER = 304.4671
MEAN_ANOMALY   = 55.6460

EPHEMERIS_TYPE = 0
CLASSIFICATION_TYPE = U
NORAD_CAT_ID   = 66710
ELEMENT_SET_NO = 999
REV_AT_EPOCH   = 343
BSTAR          = .20005E-3
MEAN_MOTION_DOT = .3939E-4
MEAN_MOTION_DDOT = 0

