IRIDE FM5               
1 66699U 25276AK  25355.51116213  .00005616  00000+0  28485-3 0  9995
2 66699  97.4440  67.1171 0004801 242.2933 117.7814 15.17328524  3456
IRIDE FM6               
1 66700U 25276AL  25355.43286196  .00008480  00000+0  41792-3 0  9995
2 66700  97.4428  67.0733 0001529 167.0520 193.0754 15.18188010  3442
IRIDE FM7               
1 66701U 25276AM  25355.51120687 -.00138346  00000+0 -71121-2 0  9992
2 66701  97.4408  67.1217 0002041 246.0122 114.0898 15.17123308  3456
IRIDE FM8               
1 66702U 25276AN  25355.44505301  .00007737  00000+0  39072-3 0  9992
2 66702  97.4406  67.0500 0002819 271.4009  88.6901 15.17360953  3447
PELICAN-6               
1 66703U 25276AP  25355.44372294  .00006512  00000+0  32979-3 0  9995
2 66703  97.4415  67.0536 0000908 254.1430 105.9704 15.17324585  3445
FLOCK 4H-1              
1 66704U 25276AQ  25355.43418578  .00007487  00000+0  37080-3 0  9991
2 66704  97.4390  67.0574 0001776 175.4041 184.7210 15.18059569  3442
FLOCK 4H-2              
1 66705U 25276AR  25355.43376928  .00008604  00000+0  42493-3 0  9990
2 66705  97.4384  67.0582 0001124 163.8014 196.3256 15.18111901  3441
FLOCK 4H-3              
1 66706U 25276AS  25355.37648981  .01105709  00000+0  47949-1 0  9999
2 66706  97.4467  67.0015 0010850 263.3993  96.6007 15.19631128  3437
FLOCK 4H-4              
1 66707U 25276AT  25355.51275738  .00005918  00000+0  30120-3 0  9997
2 66707  97.4436  67.1220 0003513 258.3382 101.7457 15.17188007  3457
FLOCK 4H-5              
1 66708U 25276AU  25355.30078223  .00006686  00000+0  33070-3 0  9995
2 66708  97.4390  66.9337 0001120 128.5114 231.6220 15.18142755  3425
FLOCK 4H-6              
1 66709U 25276AV  25355.43601758  .00007759  00000+0  38596-3 0  9995
2 66709  97.4440  67.0759 0002605 212.9123 147.1949 15.17892092  3445
FLOCK 4H-7              
1 66710U 25276AW  25355.37704853  .00003939  00000+0  20005-3 0  9992
2 66710  97.4395  66.9821 0001094 304.4671  55.6460 15.17464124  3431
